MEAN_MOTION;ECCENTRICITY;INCLINATION;RA_OF_ASC_NODE;ARG_OF_PERICENTER;MEAN_ANOMALY;BSTAR;MEAN_MOTION_DOT;MEAN_MOTION_DDOT;TYPE
11.06778836;0.000149;51.998;253.3783;100.1961;355.3308;0.0027247;1.0E-7;0;Globalstar
11.06778963;0.0001485;51.9981;250.9473;102.1511;358.1676;0.0023136;-1.0E-8;0;Globalstar
11.06779043;0.0001485;51.9982;248.4788;103.639;68.0142;0.001581;-2.1E-7;0;Globalstar
11.06779088;0.000148;51.9983;247.3449;104.618;284.2619;0.0012533;-3.0E-7;0;Globalstar
11.06779108;0.0001479;51.9983;246.4674;105.3827;44.6033;0.00098427;-3.7E-7;0;Globalstar
11.06779101;0.000148;51.9983;246.2528;105.5702;66.1686;0.00084369;-4.1E-7;0;Globalstar
11.06779121;0.0001475;51.9983;245.1186;106.5593;282.882;0.00043984;-5.2E-7;0;Globalstar
11.06779193;0.0001476;51.9983;241.8023;107.6875;61.4896;-0.00023442;-7.0E-7;0;Globalstar
11.06778869;0.0001445;51.9983;239.574;110.5073;63.3424;-0.00037767;-7.4E-7;0;Globalstar
11.06779043;0.0001449;51.9982;237.7945;111.6173;347.6276;-0.0012473;-9.8E-7;0;Globalstar
11.06779001;0.0001435;51.9983;235.1388;113.7227;30.3621;-0.0013088;-1.0E-6;0;Globalstar
11.06778954;0.0001426;51.9984;233.3424;115.11;344.8335;-0.0012833;-9.9E-7;0;Globalstar
11.06778913;0.0001409;51.9985;230.6869;117.4332;26.7706;-0.0011104;-9.4E-7;0;Globalstar
11.06778849;0.0001404;51.9986;228.8904;118.7921;341.4955;-0.0011065;-9.4E-7;0;Globalstar
11.06778776;0.0001391;51.9987;226.8765;120.4597;322.7001;-0.0012663;-9.8E-7;0;Globalstar
11.0677877;0.0001389;51.9987;226.6638;120.6425;340.9071;-0.0012535;-9.8E-7;0;Globalstar
11.06778645;0.0001378;51.9989;224.6501;122.206;322.006;-0.0017482;-1.12E-6;0;Globalstar
11.06778641;0.0001378;51.9989;224.4377;122.2918;339.801;-0.0017263;-1.11E-6;0;Globalstar
11.06778451;0.000136;51.9989;222.4239;124.0428;321.5063;-0.0020602;-1.2E-6;0;Globalstar
11.06778518;0.0001372;51.999;222.2115;123.8254;338.971;-0.0021412;-1.22E-6;0;Globalstar
11.06778383;0.000135;51.9991;219.5578;125.6197;18.7986;-0.0025662;-1.34E-6;0;Globalstar
11.0677826;0.000134;51.9991;217.3308;127.0874;19.4403;-0.0027681;-1.39E-6;0;Globalstar
11.0677821;0.000133;51.9992;215.5331;128.8323;336.0974;-0.0026205;-1.35E-6;0;Globalstar
11.06778115;0.0001315;51.9992;213.3077;130.5954;333.8603;-0.0024361;-1.3E-6;0;Globalstar
11.06778034;0.0001301;51.9993;211.5022;131.867;304.9705;-0.0022518;-1.25E-6;0;Globalstar
11.06777874;0.0001279;51.9993;208.8554;134.3618;331.6349;-0.0018176;-1.13E-6;0;Globalstar
11.06777791;0.0001258;51.9994;206.8448;136.1654;307.2361;-0.0013394;-1.0E-6;0;Globalstar
11.06777787;0.0001256;51.9994;206.6303;136.3206;328.7938;-0.0012411;-9.8E-7;0;Globalstar
11.06777745;0.0001235;51.9994;204.404;138.1312;328.1792;-0.00054802;-7.9E-7;0;Globalstar
11.06777753;0.000123;51.9993;203.9749;138.3891;11.1139;-0.00037145;-7.4E-7;0;Globalstar
11.06777786;0.000121;51.9994;201.9717;140.0989;333.6356;0.00040783;-5.3E-7;0;Globalstar
11.0677781;0.0001194;51.9994;199.9514;142.0703;326.3318;0.00091912;-3.9E-7;0;Globalstar
11.06777787;0.0001178;51.9995;197.9601;143.84;267.3291;0.0010048;-3.7E-7;0;Globalstar
11.06777837;0.0001162;51.9995;195.7144;145.2658;301.6656;0.0012202;-3.1E-7;0;Globalstar
11.06777848;0.0001145;51.9995;193.6953;147.0019;292.3799;0.0010676;-3.5E-7;0;Globalstar
11.06777857;0.0001142;51.9995;193.4878;147.1655;301.3734;0.0010972;-3.4E-7;0;Globalstar
11.06778033;0.0001121;51.9993;191.2609;149.5542;300.9182;0.0011392;-3.3E-7;0;Globalstar
11.06778049;0.0001091;51.9993;188.6028;152.1116;347.9838;0.0013263;-2.8E-7;0;Globalstar
11.06778157;0.0001063;51.9992;186.3901;154.059;323.0465;0.0016313;-2.0E-7;0;Globalstar
11.06778217;0.0001058;51.9991;184.5831;155.5593;296.4136;0.0017952;-1.5E-7;0;Globalstar
11.0677828;0.0001045;51.999;182.3576;157.4005;294.1947;0.0020274;-9.0E-8;0;Globalstar
11.06778398;0.0001017;51.999;179.5055;159.9284;325.8265;0.0016227;-2.0E-7;0;Globalstar
11.06778456;0.0001003;51.9989;177.9039;161.6536;293.5681;0.0016052;-2.1E-7;0;Globalstar
11.067787;9.73E-5;51.9987;175.2602;164.749;314.4139;0.0033745;2.7E-7;0;Globalstar
11.06778885;9.49E-5;51.9986;173.0341;167.0389;312.6526;0.0035455;3.2E-7;0;Globalstar
11.06779;9.34E-5;51.9985;170.7787;169.7048;2.5882;0.0031548;2.2E-7;0;Globalstar
11.06778866;9.22E-5;51.9984;168.4772;171.7356;135.0053;0.0013455;-2.8E-7;0;Globalstar
11.0677889;9.07E-5;51.9983;166.5698;173.4834;286.6379;0.001104;-3.4E-7;0;Globalstar
11.06778922;8.96E-5;51.9982;165.1912;174.7389;218.1822;0.00099265;-3.7E-7;0;Globalstar
11.06778928;8.94E-5;51.9982;164.3159;175.4183;334.6784;0.00092228;-3.9E-7;0;Globalstar
11.06778962;8.78E-5;51.998;162.1172;177.8853;284.024;0.00070795;-4.5E-7;0;Globalstar
11.06779067;8.47E-5;51.9979;159.6765;180.4979;303.5007;0.00078294;-4.3E-7;0;Globalstar
11.06779304;8.28E-5;51.9976;157.4397;183.2909;320.5761;0.00017702;-5.9E-7;0;Globalstar
11.06779318;8.09E-5;51.9975;155.4389;185.4779;278.0471;0.00011236;-6.1E-7;0;Globalstar
11.06779323;8.06E-5;51.9975;155.2132;185.7848;319.2197;0.00010688;-6.1E-7;0;Globalstar
11.06779314;7.89E-5;51.9973;152.9882;188.3806;315.1063;1.9674E-5;-6.4E-7;0;Globalstar
11.06779269;7.7E-5;51.9972;150.9861;190.6266;274.6381;-0.00020893;-7.0E-7;0;Globalstar
11.06779115;7.42E-5;51.9974;148.7358;192.418;315.9127;-0.00075829;-8.5E-7;0;Globalstar
11.06779219;7.27E-5;51.9971;146.4971;194.9967;336.2373;-0.00047831;-7.7E-7;0;Globalstar
11.06779178;7.15E-5;51.9971;144.9542;196.782;199.331;-0.00079162;-8.6E-7;0;Globalstar
11.0677917;7.08E-5;51.9971;144.3075;197.3502;269.2625;-0.00082608;-8.6E-7;0;Globalstar
11.06779107;6.84E-5;51.9971;141.8583;200.1996;303.6334;-0.0012792;-9.9E-7;0;Globalstar
11.06779032;6.61E-5;51.997;139.6324;202.8582;300.9495;-0.0017312;-1.11E-6;0;Globalstar
11.06778933;6.3E-5;51.9971;137.4063;205.7216;298.5392;-0.0021644;-1.23E-6;0;Globalstar
11.06778792;6.09E-5;51.997;135.1803;208.3975;295.9113;-0.0026487;-1.36E-6;0;Globalstar
11.06778516;5.68E-5;51.997;130.7272;213.9172;292.4225;-0.0028091;-1.4E-6;0;Globalstar
11.06778395;5.58E-5;51.997;128.5009;216.4165;290.3023;-0.0025416;-1.33E-6;0;Globalstar
11.06778311;5.5E-5;51.9971;126.2743;218.7549;288.8622;-0.0019943;-1.18E-6;0;Globalstar
11.06778253;5.4E-5;51.9972;124.6915;220.6158;222.6876;-0.00159;-1.07E-6;0;Globalstar
11.06778243;5.33E-5;51.9973;124.0483;221.3622;286.2107;-0.0013715;-1.01E-6;0;Globalstar
11.06778184;5.21E-5;51.9974;121.8218;223.9025;284.4784;-0.00083696;-8.7E-7;0;Globalstar
11.06778118;5.11E-5;51.9976;119.5956;226.544;282.2707;-0.00057563;-8.0E-7;0;Globalstar
11.06778057;4.83E-5;51.998;116.422;230.4396;164.4381;-0.00030317;-7.2E-7;0;Globalstar
11.06778041;4.74E-5;51.9981;115.5717;231.3622;236.2103;-0.00030494;-7.2E-7;0;Globalstar
11.06778037;4.7E-5;51.9981;115.1436;232.0035;277.1103;-0.00031878;-7.3E-7;0;Globalstar
11.06778023;4.33E-5;51.9984;111.9832;236.0644;135.7194;-0.00018169;-6.9E-7;0;Globalstar
11.06778038;4.28E-5;51.9985;111.3339;236.7359;210.1926;-0.0001095;-6.7E-7;0;Globalstar
11.06778112;4.14E-5;51.9987;108.4645;241.449;270.4665;0.00029923;-5.6E-7;0;Globalstar
11.06778131;4.02E-5;51.9989;106.2576;244.6501;233.5375;0.00045257;-5.2E-7;0;Globalstar
11.06778147;4.02E-5;51.999;105.5029;246.0473;134.6885;0.00055527;-4.9E-7;0;Globalstar
11.06778207;3.69E-5;51.9994;102.8414;249.9443;185.8705;0.0010172;-3.6E-7;0;Globalstar
11.06778233;3.59E-5;51.9995;101.7864;251.5701;261.1599;0.0012247;-3.1E-7;0;Globalstar
11.06778312;3.44E-5;51.9997;99.7526;254.4438;276.7572;0.001704;-1.8E-7;0;Globalstar
11.06778463;3.18E-5;52.0001;96.3842;259.9063;144.2012;0.0022967;-2.0E-8;0;Globalstar
11.06778535;3.04E-5;52.0003;95.301;261.5801;269.782;0.0025255;4.0E-8;0;Globalstar
11.06778782;2.8E-5;52.0007;91.7108;267.7622;171.2923;0.0027584;1.1E-7;0;Globalstar
11.06778874;2.65E-5;52.001;89.5051;271.177;132.496;0.002423;2.0E-8;0;Globalstar
11.06778942;2.46E-5;52.0012;87.2793;275.9461;127.9553;0.0019009;-1.3E-7;0;Globalstar
11.06778859;2.36E-5;52.0012;86.8459;276.7513;178.6662;0.0013743;-2.7E-7;0;Globalstar
11.06778882;2.23E-5;52.0014;85.0624;280.5475;108.1138;0.0011268;-3.4E-7;0;Globalstar
11.06778915;2.08E-5;52.0016;82.8365;286.3319;102.697;0.0008524;-4.1E-7;0;Globalstar
11.06778955;2.06E-5;52.0016;82.1648;287.8892;216.3748;0.00090895;-3.9E-7;0;Globalstar
11.06779287;1.8E-5;52.002;78.3845;298.7912;91.257;0.00081985;-4.2E-7;0;Globalstar
11.06779344;1.77E-5;52.0021;77.5329;302.6977;162.6866;0.00091345;-3.9E-7;0;Globalstar
11.06779388;1.71E-5;52.0022;76.1583;306.9785;84.1531;0.00079931;-4.2E-7;0;Globalstar
11.06779438;1.7E-5;52.0023;73.9323;313.3788;78.3654;0.00059189;-4.8E-7;0;Globalstar
11.0677948;1.61E-5;52.0025;71.7062;321.3052;71.2409;0.00043724;-5.2E-7;0;Globalstar
11.06779465;1.52E-5;52.0027;69.4796;330.5341;63.8227;0.00011471;-6.1E-7;0;Globalstar
11.06779216;1.5E-5;52.0026;67.255;334.5698;58.1205;-0.00077888;-8.5E-7;0;Globalstar
11.06779141;1.52E-5;52.0027;66.3663;338.1638;195.792;-0.0011821;-9.6E-7;0;Globalstar
11.0677909;1.49E-5;52.0028;65.0289;342.0456;51.5354;-0.0014428;-1.03E-6;0;Globalstar
11.06779004;1.51E-5;52.0029;62.5729;352.5183;90.9374;-0.0017149;-1.11E-6;0;Globalstar
11.06778921;1.53E-5;52.003;60.3478;358.0757;84.4604;-0.0018727;-1.15E-6;0;Globalstar
11.06778895;1.52E-5;52.003;59.69;1.5785;171.4104;-0.0018952;-1.16E-6;0;Globalstar
11.06778759;1.61E-5;52.0031;56.103;12.5113;62.7378;-0.0020359;-1.19E-6;0;Globalstar
11.06778757;1.61E-5;52.0031;55.8965;14.3444;68.416;-0.0020165;-1.19E-6;0;Globalstar
11.06778695;1.62E-5;52.0032;53.6709;23.6182;59.0651;-0.0019959;-1.18E-6;0;Globalstar
11.06778612;1.69E-5;52.0032;51.4447;32.3519;51.3568;-0.0020148;-1.19E-6;0;Globalstar
11.06778482;1.84E-5;52.0033;49.2214;35.4193;44.2645;-0.0021668;-1.23E-6;0;Globalstar
11.06778349;1.97E-5;52.0032;46.994;35.535;47.1477;-0.0022747;-1.26E-6;0;Globalstar
11.06778306;2.03E-5;52.0032;46.5824;35.4217;59.7725;-0.0023641;-1.28E-6;0;Globalstar
11.0677821;2.01E-5;52.0032;44.7689;39.6768;41.9964;-0.0023199;-1.27E-6;0;Globalstar
11.06778107;2.17E-5;52.0032;42.5425;37.9019;45.3881;-0.0021077;-1.21E-6;0;Globalstar
11.0677798;2.27E-5;52.0032;40.3174;40.2497;41.9272;-0.0019829;-1.18E-6;0;Globalstar
